[{"OBJECT_NAME":"SPIRONE","OBJECT_ID":"2025-274H","EPOCH":"2026-03-09T18:01:36.945120","MEAN_MOTION":14.93072072,"ECCENTRICITY":0.00119665,"INCLINATION":97.7435,"RA_OF_ASC_NODE":359.5247,"ARG_OF_PERICENTER":353.7886,"MEAN_ANOMALY":6.3183,"EPHEMERIS_TYPE":0,"CLASSIFICATION_TYPE":"U","NORAD_CAT_ID":66657,"ELEMENT_SET_NO":999,"REV_AT_EPOCH":1538,"BSTAR":0.00040236773,"MEAN_MOTION_DOT":4.139e-5,"MEAN_MOTION_DDOT":0},{"OBJECT_NAME":"HORYU-2","OBJECT_ID":"2012-025D","EPOCH":"2026-03-09T21:35:32.524800","MEAN_MOTION":14.90371482,"ECCENTRICITY":0.00090917,"INCLINATION":98.2008,"RA_OF_ASC_NODE":197.914,"ARG_OF_PERICENTER":142.7189,"MEAN_ANOMALY":217.466,"EPHEMERIS_TYPE":0,"CLASSIFICATION_TYPE":"U","NORAD_CAT_ID":38340,"ELEMENT_SET_NO":999,"REV_AT_EPOCH":73393,"BSTAR":0.00059527617,"MEAN_MOTION_DOT":5.74e-5,"MEAN_MOTION_DDOT":0}]
